{"type": "FeatureCollection", "features": [{"type": "Feature", "properties": {"norad_id": 24946, "name": "IRIDIUM 33", "group": "iridium-33-debris", "lat": 49.8448842727249, "lon": -114.45993729762529, "alt_km": 770.0850292454879, "timestamp": "2025-12-08T21:31:05.051351+00:00", "meta": {"OBJECT_NAME": "IRIDIUM 33", "OBJECT_ID": "1997-051C", "EPOCH": "2025-12-08T07:31:33.752640", "MEAN_MOTION": 14.3503278, "ECCENTRICITY": 0.0006551, "INCLINATION": 86.387, "RA_OF_ASC_NODE": 70.0794, "ARG_OF_PERICENTER": 216.8885, "MEAN_ANOMALY": 143.1862, "EPHEMERIS_TYPE": 0, "CLASSIFICATION_TYPE": "U", "NORAD_CAT_ID": 24946, "ELEMENT_SET_NO": 999, "REV_AT_EPOCH": 47771, "BSTAR": 0.00023633187, "MEAN_MOTION_DOT": 6.93e-06, "MEAN_MOTION_DDOT": 0}, "tle": {"line1": "1 24946U 97051C   25342.31358510  .00000693  00000+0  23633-3 0  9996", "line2": "2 24946  86.3870  70.0794 0006551 216.8885 143.1862 14.35032780477715"}}, "geometry": {"type": "Point", "coordinates": [-114.45993729762529, 49.8448842727249]}}, {"type": "Feature", "properties": {"norad_id": 33773, "name": "IRIDIUM 33 DEB", "group": "iridium-33-debris", "lat": -26.52219297274037, "lon": 60.418336250094576, "alt_km": 762.19319312679, "timestamp": "2025-12-08T21:31:05.051381+00:00", "meta": {"OBJECT_NAME": "IRIDIUM 33 DEB", "OBJECT_ID": "1997-051L", "EPOCH": "2025-12-08T14:59:07.149984", "MEAN_MOTION": 14.43244382, "ECCENTRICITY": 0.00121109, "INCLINATION": 86.4014, "RA_OF_ASC_NODE": 62.3334, "ARG_OF_PERICENTER": 158.6788, "MEAN_ANOMALY": 201.492, "EPHEMERIS_TYPE": 0, "CLASSIFICATION_TYPE": "U", "NORAD_CAT_ID": 33773, "ELEMENT_SET_NO": 999, "REV_AT_EPOCH": 88288, "BSTAR": 0.00061619246, "MEAN_MOTION_DOT": 2.094e-05, "MEAN_MOTION_DDOT": 0}, "tle": {"line1": "1 33773U 97051L   25342.62438831  .00002094  00000+0  61619-3 0  9996", "line2": "2 33773  86.4014  62.3334 0012110 158.6788 201.4920 14.43244382882884"}}, "geometry": {"type": "Point", "coordinates": [60.418336250094576, -26.52219297274037]}}, {"type": "Feature", "properties": {"norad_id": 33775, "name": "IRIDIUM 33 DEB", "group": "iridium-33-debris", "lat": 80.81242201983643, "lon": 74.34333282804953, "alt_km": 745.4804144817608, "timestamp": "2025-12-08T21:31:05.051396+00:00", "meta": {"OBJECT_NAME": "IRIDIUM 33 DEB", "OBJECT_ID": "1997-051N", "EPOCH": "2025-12-08T15:00:56.453760", "MEAN_MOTION": 14.41456089, "ECCENTRICITY": 0.00138143, "INCLINATION": 86.3641, "RA_OF_ASC_NODE": 51.3098, "ARG_OF_PERICENTER": 167.4327, "MEAN_ANOMALY": 309.2562, "EPHEMERIS_TYPE": 0, "CLASSIFICATION_TYPE": "U", "NORAD_CAT_ID": 33775, "ELEMENT_SET_NO": 999, "REV_AT_EPOCH": 88081, "BSTAR": 0.00064103326, "MEAN_MOTION_DOT": 2.1e-05, "MEAN_MOTION_DDOT": 0}, "tle": {"line1": "1 33775U 97051N   25342.62565340  .00002100  00000+0  64103-3 0  9993", "line2": "2 33775  86.3641  51.3098 0013814 167.4327 309.2562 14.41456089880812"}}, "geometry": {"type": "Point", "coordinates": [74.34333282804953, 80.81242201983643]}}, {"type": "Feature", "properties": {"norad_id": 33776, "name": "IRIDIUM 33 DEB", "group": "iridium-33-debris", "lat": -3.9544522243741103, "lon": 82.14056564497122, "alt_km": 776.7144076655759, "timestamp": "2025-12-08T21:31:05.051410+00:00", "meta": {"OBJECT_NAME": "IRIDIUM 33 DEB", "OBJECT_ID": "1997-051P", "EPOCH": "2025-12-08T13:14:18.473280", "MEAN_MOTION": 14.38224487, "ECCENTRICITY": 0.00138516, "INCLINATION": 86.4038, "RA_OF_ASC_NODE": 82.5345, "ARG_OF_PERICENTER": 204.5911, "MEAN_ANOMALY": 166.4368, "EPHEMERIS_TYPE": 0, "CLASSIFICATION_TYPE": "U", "NORAD_CAT_ID": 33776, "ELEMENT_SET_NO": 999, "REV_AT_EPOCH": 88022, "BSTAR": 0.00064372908, "MEAN_MOTION_DOT": 1.976e-05, "MEAN_MOTION_DDOT": 0}, "tle": {"line1": "1 33776U 97051P   25342.55160270  .00001976  00000+0  64373-3 0  9998", "line2": "2 33776  86.4038  82.5345 0013851 204.5911 166.4368 14.38224487880221"}}, "geometry": {"type": "Point", "coordinates": [82.14056564497122, -3.9544522243741103]}}, {"type": "Feature", "properties": {"norad_id": 33777, "name": "IRIDIUM 33 DEB", "group": "iridium-33-debris", "lat": -82.93499876301443, "lon": -112.39166183224877, "alt_km": 711.3775386217021, "timestamp": "2025-12-08T21:31:05.051421+00:00", "meta": {"OBJECT_NAME": "IRIDIUM 33 DEB", "OBJECT_ID": "1997-051Q", "EPOCH": "2025-12-08T15:21:32.711616", "MEAN_MOTION": 14.55568461, "ECCENTRICITY": 0.00050676, "INCLINATION": 86.3783, "RA_OF_ASC_NODE": 36.9867, "ARG_OF_PERICENTER": 268.4261, "MEAN_ANOMALY": 91.6366, "EPHEMERIS_TYPE": 0, "CLASSIFICATION_TYPE": "U", "NORAD_CAT_ID": 33777, "ELEMENT_SET_NO": 999, "REV_AT_EPOCH": 88474, "BSTAR": 0.0014514275, "MEAN_MOTION_DOT": 6.347e-05, "MEAN_MOTION_DDOT": 0}, "tle": {"line1": "1 33777U 97051Q   25342.63996194  .00006347  00000+0  14514-2 0  9998", "line2": "2 33777  86.3783  36.9867 0005067 268.4261  91.6366 14.55568461884747"}}, "geometry": {"type": "Point", "coordinates": [-112.39166183224877, -82.93499876301443]}}, {"type": "Feature", "properties": {"norad_id": 33850, "name": "IRIDIUM 33 DEB", "group": "iridium-33-debris", "lat": 52.92438789647982, "lon": 36.68891287662529, "alt_km": 750.7472249247403, "timestamp": "2025-12-08T21:31:05.051448+00:00", "meta": {"OBJECT_NAME": "IRIDIUM 33 DEB", "OBJECT_ID": "1997-051T", "EPOCH": "2025-12-08T15:08:48.189120", "MEAN_MOTION": 14.4213501, "ECCENTRICITY": 0.00118337, "INCLINATION": 86.3419, "RA_OF_ASC_NODE": 31.9463, "ARG_OF_PERICENTER": 173.6819, "MEAN_ANOMALY": 302.206, "EPHEMERIS_TYPE": 0, "CLASSIFICATION_TYPE": "U", "NORAD_CAT_ID": 33850, "ELEMENT_SET_NO": 999, "REV_AT_EPOCH": 88093, "BSTAR": 0.00062880549, "MEAN_MOTION_DOT": 2.088e-05, "MEAN_MOTION_DDOT": 0}, "tle": {"line1": "1 33850U 97051T   25342.63111330  .00002088  00000+0  62881-3 0  9990", "line2": "2 33850  86.3419  31.9463 0011833 173.6819 302.2060 14.42135010880931"}}, "geometry": {"type": "Point", "coordinates": [36.68891287662529, 52.92438789647982]}}, {"type": "Feature", "properties": {"norad_id": 33853, "name": "IRIDIUM 33 DEB", "group": "iridium-33-debris", "lat": -46.12059184817539, "lon": -12.676308441966727, "alt_km": 840.3825256872624, "timestamp": "2025-12-08T21:31:05.051461+00:00", "meta": {"OBJECT_NAME": "IRIDIUM 33 DEB", "OBJECT_ID": "1997-051W", "EPOCH": "2025-12-08T12:11:22.986816", "MEAN_MOTION": 13.99022624, "ECCENTRICITY": 0.02069228, "INCLINATION": 85.9997, "RA_OF_ASC_NODE": 351.667, "ARG_OF_PERICENTER": 248.9226, "MEAN_ANOMALY": 266.3481, "EPHEMERIS_TYPE": 0, "CLASSIFICATION_TYPE": "U", "NORAD_CAT_ID": 33853, "ELEMENT_SET_NO": 999, "REV_AT_EPOCH": 85286, "BSTAR": 0.0029663214, "MEAN_MOTION_DOT": 5.167e-05, "MEAN_MOTION_DDOT": 0}, "tle": {"line1": "1 33853U 97051W   25342.50790494  .00005167  00000+0  29663-2 0  9994", "line2": "2 33853  85.9997 351.6670 0206922 248.9226 266.3481 13.99022624852860"}}, "geometry": {"type": "Point", "coordinates": [-12.676308441966727, -46.12059184817539]}}, {"type": "Feature", "properties": {"norad_id": 33860, "name": "IRIDIUM 33 DEB", "group": "iridium-33-debris", "lat": -0.9770007336680047, "lon": 28.877382310998634, "alt_km": 667.4289486465213, "timestamp": "2025-12-08T21:31:05.051473+00:00", "meta": {"OBJECT_NAME": "IRIDIUM 33 DEB", "OBJECT_ID": "1997-051AD", "EPOCH": "2025-12-08T10:20:45.237696", "MEAN_MOTION": 14.67281531, "ECCENTRICITY": 0.00080141, "INCLINATION": 86.3837, "RA_OF_ASC_NODE": 29.1451, "ARG_OF_PERICENTER": 12.6318, "MEAN_ANOMALY": 49.2169, "EPHEMERIS_TYPE": 0, "CLASSIFICATION_TYPE": "U", "NORAD_CAT_ID": 33860, "ELEMENT_SET_NO": 999, "REV_AT_EPOCH": 88659, "BSTAR": 0.0015327477, "MEAN_MOTION_DOT": 8.67e-05, "MEAN_MOTION_DDOT": 0}, "tle": {"line1": "1 33860U 97051AD  25342.43107914  .00008670  00000+0  15327-2 0  9997", "line2": "2 33860  86.3837  29.1451 0008014  12.6318  49.2169 14.67281531886598"}}, "geometry": {"type": "Point", "coordinates": [28.877382310998634, -0.9770007336680047]}}, {"type": "Feature", "properties": {"norad_id": 33862, "name": "IRIDIUM 33 DEB", "group": "iridium-33-debris", "lat": 4.75351171768428, "lon": 39.524003663926656, "alt_km": 656.8740725457292, "timestamp": "2025-12-08T21:31:05.051484+00:00", "meta": {"OBJECT_NAME": "IRIDIUM 33 DEB", "OBJECT_ID": "1997-051AF", "EPOCH": "2025-12-08T15:29:23.038656", "MEAN_MOTION": 14.69371874, "ECCENTRICITY": 0.00537692, "INCLINATION": 86.4088, "RA_OF_ASC_NODE": 39.3355, "ARG_OF_PERICENTER": 82.8582, "MEAN_ANOMALY": 34.8096, "EPHEMERIS_TYPE": 0, "CLASSIFICATION_TYPE": "U", "NORAD_CAT_ID": 33862, "ELEMENT_SET_NO": 999, "REV_AT_EPOCH": 88763, "BSTAR": 0.0017717911, "MEAN_MOTION_DOT": 0.00010737, "MEAN_MOTION_DDOT": 0}, "tle": {"line1": "1 33862U 97051AF  25342.64540554  .00010737  00000+0  17718-2 0  9996", "line2": "2 33862  86.4088  39.3355 0053769  82.8582  34.8096 14.69371874887631"}}, "geometry": {"type": "Point", "coordinates": [39.524003663926656, 4.75351171768428]}}, {"type": "Feature", "properties": {"norad_id": 33866, "name": "IRIDIUM 33 DEB", "group": "iridium-33-debris", "lat": -38.497765327294545, "lon": 91.71171316994443, "alt_km": 883.3565866218223, "timestamp": "2025-12-08T21:31:05.051495+00:00", "meta": {"OBJECT_NAME": "IRIDIUM 33 DEB", "OBJECT_ID": "1997-051AK", "EPOCH": "2025-12-08T13:20:40.826112", "MEAN_MOTION": 14.25253144, "ECCENTRICITY": 0.01141453, "INCLINATION": 86.3003, "RA_OF_ASC_NODE": 94.8057, "ARG_OF_PERICENTER": 174.7213, "MEAN_ANOMALY": 199.8029, "EPHEMERIS_TYPE": 0, "CLASSIFICATION_TYPE": "U", "NORAD_CAT_ID": 33866, "ELEMENT_SET_NO": 999, "REV_AT_EPOCH": 86751, "BSTAR": 0.00123106, "MEAN_MOTION_DOT": 3.117e-05, "MEAN_MOTION_DDOT": 0}, "tle": {"line1": "1 33866U 97051AK  25342.55602808  .00003117  00000+0  12311-2 0  9999", "line2": "2 33866  86.3003  94.8057 0114145 174.7213 199.8029 14.25253144867518"}}, "geometry": {"type": "Point", "coordinates": [91.71171316994443, -38.497765327294545]}}]}